GLOBALSTAR M069         
1 31573U 07020C   26116.50219071 -.00000119  00000+0 -24522-3 0  9999
2 31573  52.0054  38.4122 0002361  44.9651 126.5687 12.23469798872472
GLOBALSTAR M072         
1 31574U 07020D   26116.28743397 -.00000087  00000+0 -39538-4 0  9996
2 31574  51.9926 238.4172 0001499 184.5205 191.3542 11.91657330868798
GLOBALSTAR M066         
1 32265U 07048C   26116.56113362 -.00000108  00000+0 -11872-3 0  9992
2 32265  51.9583 206.1171 0004281 290.6622  82.9381 12.30387851853871
GLOBALSTAR M079         
1 37188U 10054A   26116.42230480 -.00000088  00000+0  86080-4 0  9998
2 37188  52.0041 266.2500 0000574 133.6274 257.0385 12.62265174716015
GLOBALSTAR M074         
1 37189U 10054B   26116.45009677 -.00000101  00000+0  17821-4 0  9997
2 37189  52.0015 265.4388 0000650 104.6185 292.1580 12.62267603716629
GLOBALSTAR M076         
1 37190U 10054C   26116.39431272 -.00000087  00000+0  96084-4 0  9993
2 37190  52.0030 265.8061 0000427 103.0226 280.9825 12.62272346716336
GLOBALSTAR M077         
1 37191U 10054D   26116.48707968 -.00000078  00000+0 -74370-5 0  9998
2 37191  51.9973 310.5195 0003309  82.3567 291.4041 11.67547498715104
GLOBALSTAR M075         
1 37192U 10054E   26116.48501801 -.00000082  00000+0  12228-3 0  9993
2 37192  51.9953 307.6151 0000824 100.6079 275.0752 12.62266123715413
GLOBALSTAR M073         
1 37193U 10054F   26116.49958331 -.00000108  00000+0 -22394-4 0  9995
2 37193  52.0058 221.6299 0000373 151.3595 289.5439 12.62266510717408
GLOBALSTAR M083         
1 37739U 11033A   26116.35397117 -.00000098  00000+0  31511-4 0  9991
2 37739  51.9838 170.3728 0000242 187.2720 253.2549 12.62262823686406
GLOBALSTAR M088         
1 37740U 11033B   26116.26189122 -.00000100  00000+0  22812-4 0  9996
2 37740  52.0211  76.9530 0000453  56.3005  83.5490 12.62263114681939
GLOBALSTAR M091         
1 37741U 11033C   26116.51916574 -.00000101  00000+0  13275-4 0  9998
2 37741  52.0018  39.2113 0000541  82.4474  88.5007 12.62262790682751
GLOBALSTAR M085         
1 37742U 11033D   26116.42670653 -.00000086  00000+0  10173-3 0  9999
2 37742  52.0147 350.7421 0000699 100.0420  70.7441 12.62262851683259
GLOBALSTAR M081         
1 37743U 11033E   26116.37422816 -.00000083  00000+0  11865-3 0  9996
2 37743  51.9986 353.3976 0000640  80.0325  91.4481 12.62263681683391
GLOBALSTAR M089         
1 37744U 11033F   26116.25538104 -.00000079  00000+0  13735-3 0  9995
2 37744  51.9937 307.9293 0000826  76.5287  95.0557 12.62265961684228
GLOBALSTAR M084         
1 38040U 11080A   26116.47127243 -.00000100  00000+0  23706-4 0  9994
2 38040  51.9993 174.7249 0000201  65.6178 307.4047 12.62266632662233
GLOBALSTAR M080         
1 38041U 11080B   26116.44270310 -.00000097  00000+0  36616-4 0  9995
2 38041  52.0044 176.5124 0000740 142.5152 230.3720 12.62268512662354
