[{"OBJECT_NAME":"GLOBALSTAR M069","OBJECT_ID":"2007-020C","EPOCH":"2026-04-26T12:03:09.277344","MEAN_MOTION":12.23469798,"ECCENTRICITY":0.0002361,"INCLINATION":52.0054,"RA_OF_ASC_NODE":38.4122,"ARG_OF_PERICENTER":44.9651,"MEAN_ANOMALY":126.5687,"EPHEMERIS_TYPE":0,"CLASSIFICATION_TYPE":"U","NORAD_CAT_ID":31573,"ELEMENT_SET_NO":999,"REV_AT_EPOCH":87247,"BSTAR":-0.00024522,"MEAN_MOTION_DOT":-1.19e-6,"MEAN_MOTION_DDOT":0},{"OBJECT_NAME":"GLOBALSTAR M072","OBJECT_ID":"2007-020D","EPOCH":"2026-04-26T06:53:54.295008","MEAN_MOTION":11.9165733,"ECCENTRICITY":0.0001499,"INCLINATION":51.9926,"RA_OF_ASC_NODE":238.4172,"ARG_OF_PERICENTER":184.5205,"MEAN_ANOMALY":191.3542,"EPHEMERIS_TYPE":0,"CLASSIFICATION_TYPE":"U","NORAD_CAT_ID":31574,"ELEMENT_SET_NO":999,"REV_AT_EPOCH":86879,"BSTAR":-3.9538e-5,"MEAN_MOTION_DOT":-8.7e-7,"MEAN_MOTION_DDOT":0},{"OBJECT_NAME":"GLOBALSTAR M066","OBJECT_ID":"2007-048C","EPOCH":"2026-04-26T13:28:01.944768","MEAN_MOTION":12.30387851,"ECCENTRICITY":0.0004281,"INCLINATION":51.9583,"RA_OF_ASC_NODE":206.1171,"ARG_OF_PERICENTER":290.6622,"MEAN_ANOMALY":82.9381,"EPHEMERIS_TYPE":0,"CLASSIFICATION_TYPE":"U","NORAD_CAT_ID":32265,"ELEMENT_SET_NO":999,"REV_AT_EPOCH":85387,"BSTAR":-0.00011872,"MEAN_MOTION_DOT":-1.08e-6,"MEAN_MOTION_DDOT":0},{"OBJECT_NAME":"GLOBALSTAR M079","OBJECT_ID":"2010-054A","EPOCH":"2026-04-26T10:08:07.134720","MEAN_MOTION":12.62265174,"ECCENTRICITY":5.74e-5,"INCLINATION":52.0041,"RA_OF_ASC_NODE":266.25,"ARG_OF_PERICENTER":133.6274,"MEAN_ANOMALY":257.0385,"EPHEMERIS_TYPE":0,"CLASSIFICATION_TYPE":"U","NORAD_CAT_ID":37188,"ELEMENT_SET_NO":999,"REV_AT_EPOCH":71601,"BSTAR":8.608e-5,"MEAN_MOTION_DOT":-8.8e-7,"MEAN_MOTION_DDOT":0},{"OBJECT_NAME":"GLOBALSTAR M074","OBJECT_ID":"2010-054B","EPOCH":"2026-04-26T10:48:08.360928","MEAN_MOTION":12.62267603,"ECCENTRICITY":6.5e-5,"INCLINATION":52.0015,"RA_OF_ASC_NODE":265.4388,"ARG_OF_PERICENTER":104.6185,"MEAN_ANOMALY":292.158,"EPHEMERIS_TYPE":0,"CLASSIFICATION_TYPE":"U","NORAD_CAT_ID":37189,"ELEMENT_SET_NO":999,"REV_AT_EPOCH":71662,"BSTAR":1.7821e-5,"MEAN_MOTION_DOT":-1.01e-6,"MEAN_MOTION_DDOT":0},{"OBJECT_NAME":"GLOBALSTAR M076","OBJECT_ID":"2010-054C","EPOCH":"2026-04-26T09:27:48.619008","MEAN_MOTION":12.62272346,"ECCENTRICITY":4.27e-5,"INCLINATION":52.003,"RA_OF_ASC_NODE":265.8061,"ARG_OF_PERICENTER":103.0226,"MEAN_ANOMALY":280.9825,"EPHEMERIS_TYPE":0,"CLASSIFICATION_TYPE":"U","NORAD_CAT_ID":37190,"ELEMENT_SET_NO":999,"REV_AT_EPOCH":71633,"BSTAR":9.6084e-5,"MEAN_MOTION_DOT":-8.7e-7,"MEAN_MOTION_DDOT":0},{"OBJECT_NAME":"GLOBALSTAR M077","OBJECT_ID":"2010-054D","EPOCH":"2026-04-26T11:41:23.684352","MEAN_MOTION":11.67547498,"ECCENTRICITY":0.0003309,"INCLINATION":51.9973,"RA_OF_ASC_NODE":310.5195,"ARG_OF_PERICENTER":82.3567,"MEAN_ANOMALY":291.4041,"EPHEMERIS_TYPE":0,"CLASSIFICATION_TYPE":"U","NORAD_CAT_ID":37191,"ELEMENT_SET_NO":999,"REV_AT_EPOCH":71510,"BSTAR":-7.437e-6,"MEAN_MOTION_DOT":-7.8e-7,"MEAN_MOTION_DDOT":0},{"OBJECT_NAME":"GLOBALSTAR M075","OBJECT_ID":"2010-054E","EPOCH":"2026-04-26T11:38:25.556064","MEAN_MOTION":12.62266123,"ECCENTRICITY":8.24e-5,"INCLINATION":51.9953,"RA_OF_ASC_NODE":307.6151,"ARG_OF_PERICENTER":100.6079,"MEAN_ANOMALY":275.0752,"EPHEMERIS_TYPE":0,"CLASSIFICATION_TYPE":"U","NORAD_CAT_ID":37192,"ELEMENT_SET_NO":999,"REV_AT_EPOCH":71541,"BSTAR":0.00012228,"MEAN_MOTION_DOT":-8.2e-7,"MEAN_MOTION_DDOT":0},{"OBJECT_NAME":"GLOBALSTAR M073","OBJECT_ID":"2010-054F","EPOCH":"2026-04-26T11:59:23.997984","MEAN_MOTION":12.6226651,"ECCENTRICITY":3.73e-5,"INCLINATION":52.0058,"RA_OF_ASC_NODE":221.6299,"ARG_OF_PERICENTER":151.3595,"MEAN_ANOMALY":289.5439,"EPHEMERIS_TYPE":0,"CLASSIFICATION_TYPE":"U","NORAD_CAT_ID":37193,"ELEMENT_SET_NO":999,"REV_AT_EPOCH":71740,"BSTAR":-2.2394e-5,"MEAN_MOTION_DOT":-1.08e-6,"MEAN_MOTION_DDOT":0},{"OBJECT_NAME":"GLOBALSTAR M083","OBJECT_ID":"2011-033A","EPOCH":"2026-04-26T08:29:43.109088","MEAN_MOTION":12.62262823,"ECCENTRICITY":2.42e-5,"INCLINATION":51.9838,"RA_OF_ASC_NODE":170.3728,"ARG_OF_PERICENTER":187.272,"MEAN_ANOMALY":253.2549,"EPHEMERIS_TYPE":0,"CLASSIFICATION_TYPE":"U","NORAD_CAT_ID":37739,"ELEMENT_SET_NO":999,"REV_AT_EPOCH":68640,"BSTAR":3.1511e-5,"MEAN_MOTION_DOT":-9.8e-7,"MEAN_MOTION_DDOT":0},{"OBJECT_NAME":"GLOBALSTAR M088","OBJECT_ID":"2011-033B","EPOCH":"2026-04-26T06:17:07.401408","MEAN_MOTION":12.62263114,"ECCENTRICITY":4.53e-5,"INCLINATION":52.0211,"RA_OF_ASC_NODE":76.953,"ARG_OF_PERICENTER":56.3005,"MEAN_ANOMALY":83.549,"EPHEMERIS_TYPE":0,"CLASSIFICATION_TYPE":"U","NORAD_CAT_ID":37740,"ELEMENT_SET_NO":999,"REV_AT_EPOCH":68193,"BSTAR":2.2812e-5,"MEAN_MOTION_DOT":-1.0e-6,"MEAN_MOTION_DDOT":0},{"OBJECT_NAME":"GLOBALSTAR M091","OBJECT_ID":"2011-033C","EPOCH":"2026-04-26T12:27:35.919936","MEAN_MOTION":12.6226279,"ECCENTRICITY":5.41e-5,"INCLINATION":52.0018,"RA_OF_ASC_NODE":39.2113,"ARG_OF_PERICENTER":82.4474,"MEAN_ANOMALY":88.5007,"EPHEMERIS_TYPE":0,"CLASSIFICATION_TYPE":"U","NORAD_CAT_ID":37741,"ELEMENT_SET_NO":999,"REV_AT_EPOCH":68275,"BSTAR":1.3275e-5,"MEAN_MOTION_DOT":-1.01e-6,"MEAN_MOTION_DDOT":0},{"OBJECT_NAME":"GLOBALSTAR M085","OBJECT_ID":"2011-033D","EPOCH":"2026-04-26T10:14:27.444192","MEAN_MOTION":12.62262851,"ECCENTRICITY":6.99e-5,"INCLINATION":52.0147,"RA_OF_ASC_NODE":350.7421,"ARG_OF_PERICENTER":100.042,"MEAN_ANOMALY":70.7441,"EPHEMERIS_TYPE":0,"CLASSIFICATION_TYPE":"U","NORAD_CAT_ID":37742,"ELEMENT_SET_NO":999,"REV_AT_EPOCH":68325,"BSTAR":0.00010173,"MEAN_MOTION_DOT":-8.6e-7,"MEAN_MOTION_DDOT":0},{"OBJECT_NAME":"GLOBALSTAR M081","OBJECT_ID":"2011-033E","EPOCH":"2026-04-26T08:58:53.313024","MEAN_MOTION":12.62263681,"ECCENTRICITY":6.4e-5,"INCLINATION":51.9986,"RA_OF_ASC_NODE":353.3976,"ARG_OF_PERICENTER":80.0325,"MEAN_ANOMALY":91.4481,"EPHEMERIS_TYPE":0,"CLASSIFICATION_TYPE":"U","NORAD_CAT_ID":37743,"ELEMENT_SET_NO":999,"REV_AT_EPOCH":68339,"BSTAR":0.00011865,"MEAN_MOTION_DOT":-8.3e-7,"MEAN_MOTION_DDOT":0},{"OBJECT_NAME":"GLOBALSTAR M089","OBJECT_ID":"2011-033F","EPOCH":"2026-04-26T06:07:44.921856","MEAN_MOTION":12.62265961,"ECCENTRICITY":8.26e-5,"INCLINATION":51.9937,"RA_OF_ASC_NODE":307.9293,"ARG_OF_PERICENTER":76.5287,"MEAN_ANOMALY":95.0557,"EPHEMERIS_TYPE":0,"CLASSIFICATION_TYPE":"U","NORAD_CAT_ID":37744,"ELEMENT_SET_NO":999,"REV_AT_EPOCH":68422,"BSTAR":0.00013735,"MEAN_MOTION_DOT":-7.9e-7,"MEAN_MOTION_DDOT":0},{"OBJECT_NAME":"GLOBALSTAR M084","OBJECT_ID":"2011-080A","EPOCH":"2026-04-26T11:18:37.937952","MEAN_MOTION":12.62266632,"ECCENTRICITY":2.01e-5,"INCLINATION":51.9993,"RA_OF_ASC_NODE":174.7249,"ARG_OF_PERICENTER":65.6178,"MEAN_ANOMALY":307.4047,"EPHEMERIS_TYPE":0,"CLASSIFICATION_TYPE":"U","NORAD_CAT_ID":38040,"ELEMENT_SET_NO":999,"REV_AT_EPOCH":66223,"BSTAR":2.3706e-5,"MEAN_MOTION_DOT":-1.0e-6,"MEAN_MOTION_DDOT":0},{"OBJECT_NAME":"GLOBALSTAR M080","OBJECT_ID":"2011-080B","EPOCH":"2026-04-26T10:37:29.547840","MEAN_MOTION":12.62268512,"ECCENTRICITY":7.4e-5,"INCLINATION":52.0044,"RA_OF_ASC_NODE":176.5124,"ARG_OF_PERICENTER":142.5152,"MEAN_ANOMALY":230.372,"EPHEMERIS_TYPE":0,"CLASSIFICATION_TYPE":"U","NORAD_CAT_ID":38041,"ELEMENT_SET_NO":999,"REV_AT_EPOCH":66235,"BSTAR":3.6616e-5,"MEAN_MOTION_DOT":-9.7e-7,"MEAN_MOTION_DDOT":0}]
